{
  "id": 1326886375,
  "type": "Feature",
  "properties": {
    "date:inception_lower":"1600-01-01",
    "date:inception_upper":"1600-12-31",
    "edtf:cessation":"uuuu",
    "edtf:inception":"1600",
    "geom:area":0.0,
    "geom:area_square_m":0.0,
    "geom:bbox":"28.45989,49.38191,28.45989,49.38191",
    "geom:latitude":49.38191,
    "geom:longitude":28.45989,
    "gn:admin1_code":"23.0",
    "gn:asciiname":"Medvedka",
    "gn:country_code":"UA",
    "gn:dem":241,
    "gn:feature_class":"P",
    "gn:feature_code":"PPL",
    "gn:geonameid":701447,
    "gn:latitude":49.38191,
    "gn:longitude":28.45989,
    "gn:modification_date":"2011-09-11",
    "gn:name":"Medvedka",
    "gn:population":0,
    "gn:timezone":"Europe/Kiev",
    "iso:country":"UA",
    "lbl:bbox":"28.43989,49.36191,28.47989,49.40191",
    "lbl:max_zoom":18.0,
    "lbl:min_zoom":13.5,
    "mz:hierarchy_label":1,
    "mz:is_current":1,
    "mz:min_zoom":12.0,
    "name:bul_x_preferred":[
        "\u041c\u0435\u0434\u0432\u0435\u0434\u043a\u0430"
    ],
    "name:che_x_preferred":[
        "\u041c\u0435\u0434\u0432\u0435\u0434\u043a\u0430"
    ],
    "name:eng_x_colloquial":[
        "Medvidka"
    ],
    "name:hye_x_preferred":[
        "\u0544\u0565\u0564\u057e\u0565\u0564\u056f\u0561"
    ],
    "name:rus_x_preferred":[
        "\u041c\u0435\u0434\u0432\u0435\u0434\u043a\u0430"
    ],
    "src:geom":"geonames",
    "wof:belongsto":[
        102191581,
        85633805,
        1108815611,
        85688783
    ],
    "wof:breaches":[],
    "wof:concordances":{
        "gn:id":701447
    },
    "wof:country":"UA",
    "wof:geomhash":"f25023a3afa14d19c4f3d45de96f3ec2",
    "wof:hierarchy":[
        {
            "continent_id":102191581,
            "country_id":85633805,
            "county_id":1108815611,
            "locality_id":1326886375,
            "region_id":85688783
        }
    ],
    "wof:id":1326886375,
    "wof:lang_x_official":[
        "ukr"
    ],
    "wof:lang_x_spoken":[
        "ukr",
        "rus"
    ],
    "wof:lastmodified":1747468443,
    "wof:name":"Medvidka",
    "wof:parent_id":1108815611,
    "wof:placetype":"locality",
    "wof:placetype_alt":[
        "\u041c\u0435\u0434\u0432\u0456\u0434\u043a\u0430"
    ],
    "wof:population":400,
    "wof:repo":"whosonfirst-data-admin-ua",
    "wof:superseded_by":[],
    "wof:supersedes":[],
    "wof:tags":[]
},
  "bbox": [
    28.45989,
    49.38191,
    28.45989,
    49.38191
],
  "geometry": {"coordinates":[28.45989,49.38191],"type":"Point"}
}